{"TDRS_TLEs": {"TDRS 3": ["1 19548U 88091B   23309.34578322 -.00000297  00000+0  00000+0 0  9991", "2 19548  13.3379 347.5124 0038713 329.7918 162.5481  1.00267495115819"], "TDRS 5": ["1 21639U 91054B   23309.62757312  .00000089  00000+0  00000+0 0  9995", "2 21639  14.1916   0.7719 0023070 355.2689 107.1930  1.00271889118141"], "TDRS 6": ["1 22314U 93003B   23309.27958174 -.00000292  00000+0  00000+0 0  9999", "2 22314  14.1567   4.0623 0010120 166.9998 287.7879  1.00266197112830"], "TDRS 7": ["1 23613U 95035B   23308.72271545 -.00000197  00000+0  00000+0 0  9992", "2 23613  13.7772 354.8249 0023601  69.4359 324.2505  1.00267144103670"], "TDRS 8": ["1 26388U 00034A   23308.99995508  .00000100  00000+0  00000+0 0  9993", "2 26388  11.1761  38.9719 0004225 198.8906 358.3545  1.00273904 85605"], "TDRS 9": ["1 27389U 02011A   23309.03659162 -.00000090  00000+0  00000+0 0  9990", "2 27389  10.1157  55.8948 0005731 124.2029 253.7987  0.98983289 80837"], "TDRS 10": ["1 27566U 02055A   23309.34899681  .00000093  00000+0  00000+0 0  9993", "2 27566   9.1389  46.9081 0002282 320.6032 351.3300  1.00274042 76655"], "TDRS 11": ["1 39070U 13004A   23309.22235524  .00000082  00000+0  00000+0 0  9997", "2 39070   2.6941   3.2945 0003150  78.6957 227.9421  1.00267402 37118"], "TDRS 12": ["1 39504U 14004A   23309.06160851 -.00000270  00000+0  00000+0 0  9992", "2 39504   3.5741 357.9108 0004691 212.5784 174.7677  1.00276318 34706"], "TDRS 13": ["1 42915U 17047A   23309.02272361 -.00000101  00000+0  00000+0 0  9991", "2 42915   3.8485 340.2095 0013391 128.1901 292.2871  1.00272096 22779"]}, "timestamp": "2023-11-05T15:00:17.713104"}